{
"type": "FeatureCollection",
"name": "neural_segmentation",
"features": [
{ "type": "Feature", "properties": { "annotation": "Spinal cord" }, "geometry": { "type": "Polygon", "coordinates": [ [ [ 92.80931188554888, 476.012738292264487 ], [ 96.056256948538433, 482.844445227665744 ], [ 98.146363380654307, 484.373086801719978 ], [ 100.120660746575638, 484.730376533965909 ], [ 100.927138462024018, 485.878839087733013 ], [ 104.020480921577374, 486.546753787192301 ], [ 102.834277164144822, 488.814994634409175 ], [ 103.941825292905406, 490.37308426711229 ], [ 105.295503716933993, 490.833281154574877 ], [ 105.482411545525338, 492.615917747688627 ], [ 109.524949771327783, 495.640753054959077 ], [ 108.2683243140809, 497.452569361744906 ], [ 109.306911664873041, 499.329398644712171 ], [ 111.958428497363471, 499.116120846996296 ], [ 111.513865161889299, 502.257886156630946 ], [ 112.319453908447542, 503.716139418494379 ], [ 110.110179695251077, 505.238139224040651 ], [ 109.90867041863001, 506.319714832968202 ], [ 111.502371947914156, 507.065060586313223 ], [ 119.028161097912104, 516.609566028662471 ], [ 120.453744898119197, 521.37964193179846 ], [ 121.970471575461431, 523.298181777823061 ], [ 121.907387682055443, 524.692577771866354 ], [ 124.472896818919835, 528.388224996443228 ], [ 129.477342802993888, 531.561692516348558 ], [ 130.895609017577925, 533.750954375323658 ], [ 133.06927745970782, 534.225900733039794 ], [ 134.48754367429288, 536.415162592015804 ], [ 136.661212116423826, 536.890108949732848 ], [ 138.731494322992489, 540.103725287443126 ], [ 141.875465923828727, 541.871229027782761 ], [ 143.29373213841339, 544.060490886758316 ], [ 145.388023434356711, 544.480838753338389 ], [ 150.812250226409617, 548.492540657396034 ], [ 154.557661479845166, 549.098233550517762 ], [ 155.562640813801806, 550.34558929874197 ], [ 158.48073926585991, 550.851144252724225 ], [ 162.585509530334321, 555.585564641861538 ], [ 167.443097860261901, 557.502053323593032 ], [ 168.319276515673948, 558.690482115067198 ], [ 171.159219820180994, 559.155064555299532 ], [ 172.188719270733486, 560.407044252580704 ], [ 197.013534540707042, 564.786195287267446 ], [ 198.498138536110304, 563.958174162147998 ], [ 203.157269644894996, 564.846285148602419 ], [ 204.58063323185047, 564.015255475137337 ], [ 208.193716179175226, 564.72670973557922 ], [ 209.629311604412976, 563.901096247123746 ], [ 212.478088441058674, 564.435592146807267 ], [ 215.983471618150219, 562.973369807100767 ], [ 219.798973603553065, 565.713868634605092 ], [ 222.228178378480351, 566.176286108843328 ], [ 224.93789231942452, 565.366943904198934 ], [ 225.725310637643247, 563.752115212173635 ], [ 227.960390597551196, 564.965306548508693 ], [ 228.604396601620493, 563.437488141336871 ], [ 230.382875617486377, 563.280761533496957 ], [ 231.189817793525663, 561.667676053713649 ], [ 236.544404092382763, 562.409744781535892 ], [ 237.240332941450845, 560.861557128366826 ], [ 239.403622329493032, 559.468485563662171 ], [ 239.979526100783232, 557.209132927525729 ], [ 241.494175415913816, 558.395336684959943 ], [ 243.332292026784017, 558.521822079989761 ], [ 247.567812439335114, 554.48541324605003 ], [ 250.032192706810463, 554.677176785620532 ], [ 250.794507754266334, 553.097257730248202 ], [ 255.503355776422211, 549.792103971645247 ], [ 259.297223328351038, 549.077202389560966 ], [ 262.539246083128262, 544.880186930550394 ], [ 264.696024308633696, 545.184388715743466 ], [ 265.924570563651969, 544.342247807156355 ], [ 267.007855957753009, 545.606123189941741 ], [ 268.112313099472374, 545.490506894459941 ], [ 268.44988040511106, 544.508897457361286 ], [ 267.436728319626013, 542.772979453813832 ], [ 267.997749022556377, 541.914622383989581 ], [ 273.25761461322935, 539.299214488387406 ], [ 275.089305986823831, 536.098283965183441 ], [ 279.461378255216403, 533.216842183266294 ], [ 282.420114237935252, 529.226333689902845 ], [ 286.713979321588113, 526.421445368333366 ], [ 287.302571080957023, 524.936398091384035 ], [ 290.23477798666255, 523.946790499134408 ], [ 293.367162147049669, 518.971474252757275 ], [ 297.789422102607489, 516.035217078268829 ], [ 299.68038633344355, 511.961253116996886 ], [ 301.385801076941675, 511.837215772181651 ], [ 301.997298194804443, 510.338933966303841 ], [ 304.09487713465694, 509.034462684468679 ], [ 307.292938316485618, 503.19044197005843 ], [ 309.04131203899135, 503.02422346728946 ], [ 309.642626489546728, 501.532745502183673 ], [ 312.890647735215339, 499.426404663264634 ], [ 313.551564011746507, 496.259597980480635 ], [ 317.60247482792056, 490.792318849222738 ], [ 321.123840795240653, 487.578085306282674 ], [ 323.075323903765934, 482.66201226209148 ], [ 324.505452017236451, 480.760242110267711 ], [ 327.791165177742869, 478.588065997187698 ], [ 328.368745910355642, 475.536627662926549 ], [ 330.809233510453282, 473.016150523632803 ], [ 331.206602304715318, 470.959885253198195 ], [ 333.900783382201553, 467.302931516419278 ], [ 334.391755054408236, 464.413527337446624 ], [ 336.92138998930227, 461.718620309519792 ], [ 338.028382740650841, 455.536288993647133 ], [ 337.203671798622622, 454.088458045020047 ], [ 337.781248062784414, 450.849327847404879 ], [ 340.285693978973995, 448.216123941254637 ], [ 340.952160298702609, 445.074029272472615 ], [ 343.281884529733247, 446.222140134805386 ], [ 348.524400826591034, 441.626830364036437 ], [ 349.559027324540637, 435.760985674985193 ], [ 350.841113072217922, 434.664298989634176 ], [ 351.74210261769997, 429.609520256624251 ], [ 350.926682913742468, 428.027665989514048 ], [ 351.985433529518048, 422.285709987386383 ], [ 351.157412404398769, 420.960363540761648 ], [ 352.214060098032462, 415.193984396084488 ], [ 350.126130753322798, 409.73517195821313 ], [ 350.340933934502061, 402.57280144282953 ], [ 348.084018041985757, 398.079055730824564 ], [ 349.66838147312211, 389.070643615086624 ], [ 350.920709032259595, 388.054448055431237 ], [ 351.516761832109012, 384.63228588226616 ], [ 348.863922026970613, 380.397127098203896 ], [ 352.02878144632524, 376.04034579745769 ], [ 351.982889095781957, 370.185648130186621 ], [ 354.735997130019939, 366.399893714859047 ], [ 355.340331379720908, 363.040020795469673 ], [ 354.58769886313911, 360.437167842876704 ], [ 353.040808161142991, 358.485552906078851 ], [ 353.601144273759132, 355.613156920362201 ], [ 352.894618095961107, 353.122932507034307 ], [ 350.523295705549685, 349.895032753824125 ], [ 351.745992484307067, 343.113136244569205 ], [ 349.439269542594786, 338.510131764335028 ], [ 350.334005081584507, 333.534066767257514 ], [ 344.574780718251816, 326.70609986365298 ], [ 344.913977209544385, 323.201484404841722 ], [ 340.805183738848655, 318.813589999264877 ], [ 341.830612602716769, 312.835867873201835 ], [ 339.265808384371212, 304.120345765039872 ], [ 339.527861627413017, 302.781961505826644 ], [ 340.71800052034439, 301.962885740048421 ], [ 340.881990320064403, 300.201955855561835 ], [ 337.195730425773036, 296.19161956243704 ], [ 335.851729758671866, 295.754592680184317 ], [ 334.93700273370581, 294.368005079297177 ], [ 335.122236043152895, 291.941946411214644 ], [ 333.359011599746566, 289.4557082991887 ], [ 331.969580059612326, 288.977505273776217 ], [ 327.013066719279209, 281.857162843508377 ], [ 327.626254692887699, 280.103802264106264 ], [ 329.020090745440314, 281.401809675588368 ], [ 331.130083240100305, 281.157095341316847 ], [ 332.325022950530922, 274.81252175597308 ], [ 331.870816767720953, 273.867535316440012 ], [ 325.030529636471158, 272.665824401507393 ], [ 322.207052374762213, 270.076706166989254 ], [ 319.756589185756127, 269.661091033983439 ], [ 318.358120720672048, 270.477401877162322 ], [ 317.393405829295659, 269.261675313945887 ], [ 315.744531044553923, 268.976996822335536 ], [ 314.927424923626859, 269.856431573396151 ], [ 315.410749231035879, 271.88832551123005 ], [ 313.21790092824142, 271.591298510503179 ], [ 311.124200065863079, 273.163357249066564 ], [ 306.792234513929145, 274.454506970932812 ], [ 304.668828129784686, 274.136266808184018 ], [ 298.132034790937723, 276.075603679016751 ], [ 292.819634665653155, 279.074608005838627 ], [ 288.276326132336067, 280.396976557469884 ], [ 284.145753404101356, 279.664323613056979 ], [ 282.976614269338654, 278.368117101276141 ], [ 278.842292775297722, 277.655515839074951 ], [ 277.394432279035129, 278.484438966469668 ], [ 266.948939154181062, 276.560757645450337 ], [ 265.50110820555193, 277.385468587478783 ], [ 261.753264618756305, 276.673112324761576 ], [ 260.439796605581648, 277.497847607566939 ], [ 256.655577676028315, 276.789679189439141 ], [ 255.159180588922197, 277.611402593699268 ], [ 253.156499388385726, 275.046658919199615 ], [ 253.670558233408428, 271.465118730934989 ], [ 257.262938003500267, 268.143847327112553 ], [ 257.666870558446078, 266.077216745863552 ], [ 258.885057538459421, 265.120546964759114 ], [ 259.319881790155534, 262.361094785938917 ], [ 262.070210288152396, 258.574189049007543 ], [ 264.02358739865582, 247.537736668771259 ], [ 263.201260568578391, 246.089736776675664 ], [ 263.583025784756956, 243.867752308606327 ], [ 266.908220450519366, 241.606797381773248 ], [ 267.172896477477821, 240.603076617024641 ], [ 264.807848550954247, 237.4222209196368 ], [ 263.514272399508286, 231.590479628617146 ], [ 260.894457507724667, 227.904609442754435 ], [ 258.565649087611405, 227.293934382834777 ], [ 258.466862928999888, 225.614369130250168 ], [ 253.548768023855757, 218.594682672573811 ], [ 251.54672894664327, 217.07135393507059 ], [ 247.584086961877404, 216.353625094028217 ], [ 246.414947827112684, 215.057418582246669 ], [ 241.295818580060086, 214.171169142378631 ], [ 239.304066177885403, 215.204999435766013 ], [ 228.966536209820021, 213.082762592302629 ], [ 226.818667261866437, 211.541818812038088 ], [ 228.248443683902281, 208.915454875499421 ], [ 232.832787890595796, 206.582195365377174 ], [ 235.330377901229099, 205.906945571223503 ], [ 245.17845543135121, 207.643427347892782 ], [ 246.322739294321195, 208.937435567905681 ], [ 251.159752567885477, 209.780939833699023 ], [ 259.984089420183068, 216.349829749022916 ], [ 262.00125912697473, 216.7273730719985 ], [ 262.77522981237064, 217.862145795721858 ], [ 266.724317604736484, 219.655828660328808 ], [ 269.764902970010155, 224.162002380661733 ], [ 273.908186918166962, 224.984245093713611 ], [ 274.19962125478844, 226.883302587889204 ], [ 277.326473397215636, 228.63326106341853 ], [ 280.540706940155076, 232.154627030738141 ], [ 282.714375382288267, 232.629573388456862 ], [ 287.400244304247906, 238.342635383281703 ], [ 290.535756093396571, 240.101253505532497 ], [ 293.376021732148843, 244.427894900886912 ], [ 294.832634491944532, 244.977533875833899 ], [ 296.382536771834111, 248.49564057767904 ], [ 296.046017131828478, 250.062402824426215 ], [ 290.600988447551799, 250.327539305490177 ], [ 289.421900842791558, 251.140551372784216 ], [ 286.288192537886744, 250.67557462648719 ], [ 284.555794362393897, 252.104781577140244 ], [ 285.01798684103494, 254.451740083050709 ], [ 282.533754675472892, 253.981261587669479 ], [ 281.480386257685666, 252.624405851875991 ], [ 281.568534541419865, 248.805883883106475 ], [ 277.106787367725929, 247.887468147081307 ], [ 270.363908536170356, 252.385605067852282 ], [ 269.507598498245898, 256.954609149321527 ], [ 270.900205776054065, 261.638020834128724 ], [ 279.23395928732964, 268.489314628968543 ], [ 286.563340625685612, 269.857902517066066 ], [ 288.121376333807405, 269.034391950752592 ], [ 297.228897234626686, 270.456525896294181 ], [ 298.828963357663667, 268.993398985429508 ], [ 298.028652798763005, 267.528094810928167 ], [ 298.204213426175102, 265.106002642443855 ], [ 296.719799917112937, 264.514718948763118 ], [ 294.452612467670406, 261.154888037890714 ], [ 287.601692414842887, 258.871782471747849 ], [ 286.633544607079841, 257.474911224955918 ], [ 286.813988139534786, 256.009256089891664 ], [ 287.660530057150254, 255.793967591727522 ], [ 288.711869728915019, 257.037728444422669 ], [ 297.989067091526636, 258.603250145302752 ], [ 302.887008752353381, 256.133079925236871 ], [ 305.891472376561921, 251.973463416926847 ], [ 306.253753913503147, 249.698817531839126 ], [ 304.807531581252306, 246.407448701437517 ], [ 305.331138943968028, 243.528338209432064 ], [ 304.645268919635384, 241.09584387764022 ], [ 300.68573380065618, 235.665118719953398 ], [ 300.104951669432069, 232.117762706004896 ], [ 298.373053126443949, 229.595842221014266 ], [ 295.092672289025188, 227.672454418988622 ], [ 294.91069365036816, 225.887906134584455 ], [ 293.470353138334985, 225.355542557630798 ], [ 289.058928445284209, 218.763522372842687 ], [ 285.01146102954749, 215.740598756862909 ], [ 282.959436681752948, 212.542213466044188 ], [ 269.424299015650718, 201.935668749040332 ], [ 267.34019038700859, 201.52212472322833 ], [ 264.847556605923558, 199.097812354681281 ], [ 259.982672895911719, 197.178516042856245 ], [ 254.558446103862849, 193.166814138800873 ], [ 250.766835472871549, 192.544590844068296 ], [ 246.923923544511041, 189.769434724071715 ], [ 241.172236771392704, 188.791125195321143 ], [ 238.740382629312393, 185.316971579346443 ], [ 236.846067268786243, 185.14332340167951 ], [ 235.624652512851782, 186.84024961630692 ], [ 233.990867896429393, 184.562094008405239 ], [ 232.284918009702125, 184.169689756066418 ], [ 227.834650212200046, 186.425935896620786 ], [ 222.453570724126166, 186.611190854460062 ], [ 221.657278406816033, 188.205183755817757 ], [ 219.223839331667392, 189.912558422295234 ], [ 217.796985957252332, 189.864931190914774 ], [ 215.175318200388233, 191.624303430725291 ], [ 213.422055637788645, 191.182430201875434 ], [ 212.899472092096374, 192.079322174526624 ], [ 213.512054733844934, 193.915355810207103 ], [ 207.639280024876285, 198.024154175747867 ], [ 202.759038191615304, 199.505243217113815 ], [ 202.020679801632468, 201.095127798451557 ], [ 192.009524214267969, 203.602534469708331 ], [ 181.008201326174998, 210.618758185887827 ], [ 176.869741251456617, 209.969348594313942 ], [ 173.637276128159215, 212.337215728317176 ], [ 172.058753909268745, 212.369633796659485 ], [ 168.077060569716537, 216.141666812665903 ], [ 167.584933795307649, 219.036331310844673 ], [ 166.385839850895991, 219.928725068861496 ], [ 165.905533331627737, 222.801914145226561 ], [ 164.718259642356685, 223.67283248142968 ], [ 164.049798680373186, 225.930346778723759 ], [ 161.041694270051153, 226.182468070090607 ], [ 165.468341364139377, 219.089663808791528 ], [ 166.350065606133995, 213.84841816535473 ], [ 164.364540952304708, 210.871305252185607 ], [ 158.634345305215732, 209.796007163913373 ], [ 155.427548186705678, 211.229394854388119 ], [ 153.232270216871655, 210.930130438750382 ], [ 150.118456920543537, 213.267346407038985 ], [ 148.603200594047479, 213.26219539126248 ], [ 141.065960567126638, 218.747275198225594 ], [ 137.443124368972121, 219.36667123400008 ], [ 132.569882433791832, 222.758657233066572 ], [ 130.747657802157335, 225.951818601926078 ], [ 128.558395943182745, 227.370084816509205 ], [ 126.751345477119287, 231.339720586998368 ], [ 124.68729945199776, 232.607303029911151 ], [ 124.260785438093549, 233.946847490701742 ], [ 120.650978380507411, 237.322081630541476 ], [ 120.202403263441923, 240.128884508520258 ], [ 119.046651405636993, 240.947211846146871 ], [ 118.523002799762025, 243.894467342902146 ], [ 117.253598965778252, 244.956604189893142 ], [ 115.993551583371953, 252.164616301764966 ], [ 116.820989883937528, 253.490175910982742 ], [ 116.283465535122829, 256.252983830621588 ], [ 117.108200817928306, 257.578698433635736 ], [ 116.765337306667831, 259.576145749318243 ], [ 117.576251882529093, 260.743145213096568 ], [ 117.075527792982555, 263.772483627849908 ], [ 118.209356523028035, 265.427173996355918 ], [ 119.597051159671935, 265.936651056833455 ], [ 121.574968446266055, 272.715936702561805 ], [ 121.283304878671572, 273.995379842546015 ], [ 119.131747716771912, 275.364308902616813 ], [ 118.650248214312001, 277.535898035787852 ], [ 117.465662297298692, 278.405008440409119 ], [ 116.567663220424578, 284.024776359246516 ], [ 121.55614636776086, 288.469903349965307 ], [ 129.065594694005568, 287.396021785748985 ], [ 131.72222484325809, 288.232689151535624 ], [ 132.043370012469524, 290.15230253419611 ], [ 134.011614375377121, 290.585013357178241 ], [ 134.738586227588684, 289.629722919498931 ], [ 134.052415112662459, 287.172716926847215 ], [ 131.029456928644322, 281.779747914928407 ], [ 131.746727762954293, 279.98409067862201 ], [ 134.128247158403013, 281.568070846372109 ], [ 135.661162320631377, 280.758340006746721 ], [ 137.836947411145331, 281.123574821315003 ], [ 138.864457344496458, 282.380588947487013 ], [ 142.63353737609529, 282.993153864272642 ], [ 143.515130606116003, 284.186474806196429 ], [ 147.383927963488333, 284.84620250561909 ], [ 148.457784066271614, 286.119161336981676 ], [ 155.042542432364257, 287.203665278356368 ], [ 156.17442225586521, 288.496426747777434 ], [ 157.644605008149199, 288.684973076382732 ], [ 158.885639675949079, 287.879135793553758 ], [ 164.890619962486227, 288.940147055025648 ], [ 168.425539473765667, 292.640558437585469 ], [ 172.294336831139077, 293.300286137008527 ], [ 173.368192933921279, 294.573244968370716 ], [ 178.029535171545234, 295.326982956022221 ], [ 179.115215617490492, 296.603214023832606 ], [ 185.27809964551372, 297.682785994744734 ], [ 186.750471802636213, 296.854163957943626 ], [ 196.211157174475403, 298.604197101295711 ], [ 197.707996693270985, 297.777078522603745 ], [ 201.788818554720422, 298.413424516197097 ], [ 203.335593813727655, 297.310562954471379 ], [ 203.795790701191123, 295.956884530442096 ], [ 207.326958904754264, 295.372192581022659 ], [ 209.056299428103102, 294.086808086639451 ], [ 209.416099138246125, 292.093808708599511 ], [ 210.634286118259553, 291.137138927494391 ], [ 211.06911036995379, 288.3776867486784 ], [ 212.317535069855893, 287.359906553918165 ], [ 213.422124410219936, 280.717229554478138 ], [ 216.172775888834394, 276.943697246848728 ], [ 216.95457351524675, 272.201256132702156 ], [ 219.653646743183486, 268.538887821311391 ], [ 220.048440880120495, 266.487403729007497 ], [ 221.159399029196464, 265.758112739941737 ], [ 221.645478550952674, 262.874123135580874 ], [ 222.80123040875776, 262.055795797953976 ], [ 223.324879014632671, 259.108540301198616 ], [ 224.597837845994832, 258.034684198416926 ], [ 225.677673505009949, 251.761958686898566 ], [ 223.694717612161014, 245.035000644173266 ], [ 222.587169483401368, 243.476911011470804 ], [ 218.586953318621994, 241.647938627540867 ], [ 217.568759612944291, 240.175071604263735 ], [ 219.32365673612469, 235.942288739514936 ], [ 221.976615877428657, 233.159891915219532 ], [ 225.565474805727092, 232.554569725431833 ], [ 227.552213880459504, 231.012614086506716 ], [ 229.602881493784537, 231.341948411760114 ], [ 230.891628298547488, 230.51753203673033 ], [ 234.761219066352453, 231.216384876010437 ], [ 236.462266496632679, 230.11520410185588 ], [ 237.110065089313707, 228.636220074015881 ], [ 240.035446613240055, 229.146113565409451 ], [ 241.269735799232308, 228.334326212512167 ], [ 242.731884518400648, 228.549575505132225 ], [ 243.506751161032042, 232.346175750718857 ], [ 245.075510161682757, 234.532811136373425 ], [ 243.768046093954666, 235.786289699547325 ], [ 242.837104931257528, 241.444158945975119 ], [ 241.560873863446375, 242.529839391922962 ], [ 241.005254973881136, 245.836317301238523 ], [ 241.824344706550107, 247.304446973978486 ], [ 239.449486245305764, 249.035083375596741 ], [ 239.083639282510376, 251.038757647453906 ], [ 237.861603814580207, 252.007076967754074 ], [ 237.277959007216964, 255.695330708157428 ], [ 235.80150025911442, 257.717348073965184 ], [ 234.844207301222042, 257.555037818150822 ], [ 234.656753009125879, 255.771845808138949 ], [ 233.521530427333744, 255.66003614293524 ], [ 233.012630323804785, 256.612121271385092 ], [ 233.690959820559016, 258.319545273844085 ], [ 229.799375480930109, 259.123212054905423 ], [ 228.912756521948353, 262.510557729541688 ], [ 226.874991761478896, 262.97235591354854 ], [ 226.309931964022525, 265.994546797531711 ], [ 223.580259619489624, 269.723722452930645 ], [ 222.972110170744173, 273.481355814065012 ], [ 221.702706336760571, 274.543492661055723 ], [ 220.792963858033886, 279.683872126572567 ], [ 221.618577346489218, 281.11946755181549 ], [ 221.084081446805499, 283.968244388459027 ], [ 223.107524573377333, 290.771883705574169 ], [ 224.716201770671375, 291.542797497281356 ], [ 225.885500924401839, 294.622473456383602 ], [ 227.959244242225282, 295.029453721509242 ], [ 230.625226552298727, 297.545061717499323 ], [ 235.423470989140554, 298.35225394603367 ], [ 237.98304369207429, 300.812567017416256 ], [ 240.940664499649017, 301.342779383977813 ], [ 242.014520602431361, 302.615738215340059 ], [ 244.348015101897261, 303.000981163687015 ], [ 246.755714462546763, 302.356215576032923 ], [ 247.911647864711426, 303.654072283962421 ], [ 254.554324864153017, 304.758661624327033 ], [ 255.628180966935361, 306.031620455689335 ], [ 266.629088052869747, 307.976092252948945 ], [ 268.150291690139568, 307.15167587791916 ], [ 272.74818239047238, 308.036778316027778 ], [ 274.14740247295731, 307.215352672161941 ], [ 276.299947052911818, 307.565660906040648 ], [ 277.659985632147198, 308.904116657935504 ], [ 279.254370311949174, 308.086605439041591 ], [ 280.433847313072079, 309.391289380798924 ], [ 290.946012348049578, 311.167113796392925 ], [ 292.077892171551639, 312.459875265814276 ], [ 301.121723526773224, 314.056480674954059 ], [ 303.700915959586723, 313.412617633726882 ], [ 305.816729880569198, 314.917529255774866 ], [ 306.777127828013704, 316.431939926388679 ], [ 306.313334817952295, 319.57766690698827 ], [ 307.834748062328458, 321.507521126707275 ], [ 307.867169715233274, 323.072948474527152 ], [ 309.491401315668952, 323.952575920413324 ], [ 308.970211636608269, 326.905346538954291 ], [ 310.441528306304292, 330.417617718527424 ], [ 309.200758233647832, 331.410291973612686 ], [ 308.951027163921083, 333.1675822932865 ], [ 309.801561745751712, 333.865597985461989 ], [ 311.164485232632103, 333.020158300989067 ], [ 311.86126697117885, 333.474513901675209 ], [ 311.612122134011031, 334.926521685054126 ], [ 310.37289545914706, 335.984365245738331 ], [ 311.183810035008207, 337.529299083661158 ], [ 310.650514511039376, 340.39026353946781 ], [ 312.240246533088225, 342.592861608288445 ], [ 313.531396254953279, 346.924827160219195 ], [ 313.88131865559842, 351.310149055026841 ], [ 315.004471663900347, 352.929646285380159 ], [ 316.367616829891858, 353.397612327189734 ], [ 316.504888703634322, 355.125932429180239 ], [ 318.801121469026725, 356.873019476031118 ], [ 318.570779442085723, 359.234042852916502 ], [ 320.249766528951284, 360.174699733597606 ], [ 320.327182626455738, 361.825342958638259 ], [ 321.776218818333632, 362.383850340616164 ], [ 322.802306660491354, 363.894497508558516 ], [ 320.338585566875963, 365.975876416116137 ], [ 319.122713324242397, 372.851681947705231 ], [ 317.029451763915631, 374.157634869928359 ], [ 316.602937750011051, 375.497179330719234 ], [ 312.988158881512732, 378.883629696256094 ], [ 312.727671202316856, 386.646661298788786 ], [ 315.008663977707556, 388.555423002290865 ], [ 317.04934754201588, 388.944444136740174 ], [ 322.475620006399765, 392.969971996984725 ], [ 323.824935347380347, 395.108096402885792 ], [ 325.118124227285989, 395.493308347712059 ], [ 327.923012548855183, 399.787173431364636 ], [ 329.408059825804457, 400.375765190734228 ], [ 342.417808706086703, 419.565835350807106 ], [ 340.672091872065323, 420.632030562067655 ], [ 339.46762187905415, 419.326974131003055 ], [ 335.281675610293064, 418.964766891242903 ], [ 333.318759957648865, 416.376937334387151 ], [ 331.96138344448724, 415.934766467192276 ], [ 324.600431809157158, 405.433638791640135 ], [ 324.586815768857832, 403.887680078790254 ], [ 321.24187845885092, 399.099963121920553 ], [ 319.761934787335861, 398.521895348788178 ], [ 314.50598681185312, 390.734378140190756 ], [ 313.146941481689339, 390.676082538619653 ], [ 312.448583085005623, 393.387956367557592 ], [ 313.306333963100712, 394.713752894281413 ], [ 312.807812907469838, 397.884573018790775 ], [ 318.369011023673579, 405.574479956299285 ], [ 318.780560445271192, 410.118090393724401 ], [ 321.958626942988076, 414.492999407150421 ], [ 321.260184336170767, 418.393978136840246 ], [ 322.549661044637674, 422.896404590332111 ], [ 320.285035011832747, 435.747441970336808 ], [ 318.705138447145998, 437.923745435442925 ], [ 316.804350476224158, 438.251306278829134 ], [ 314.783811064747624, 443.251157876389072 ], [ 313.162828052457087, 443.32528937391163 ], [ 309.325605903104588, 446.082717746812307 ], [ 308.914869507386129, 448.159530995370062 ], [ 307.696682527373468, 449.116200776473192 ], [ 307.261858275677412, 451.875652955293447 ], [ 306.017282063693585, 452.881783610855166 ], [ 305.235161456663604, 457.610851295699774 ], [ 303.006437856790967, 459.106482704714381 ], [ 302.335921403539317, 462.295539294149535 ], [ 298.778536060241663, 465.558325983707732 ], [ 298.165960900834193, 468.668249032234201 ], [ 295.439760837234303, 472.333931485443372 ], [ 293.334412743034591, 473.647869509241218 ], [ 292.83754446745013, 475.852118345663882 ], [ 290.677973680688922, 477.230337423994229 ], [ 287.653560676526922, 482.089550385392499 ], [ 280.773383104300649, 487.595238529419817 ], [ 278.990648317069315, 490.757467989030374 ], [ 273.547617320999279, 494.365502261081474 ], [ 272.988688327790328, 495.830128645740501 ], [ 260.640420647823703, 504.265296188545278 ], [ 260.072024912652466, 505.737691727551066 ], [ 258.392459660066606, 505.836477886163607 ], [ 249.055861341034245, 512.376891941996632 ], [ 248.448512821437021, 513.877721998158677 ], [ 246.738949479675711, 513.999211092687347 ], [ 246.090089941416409, 515.524590619497189 ], [ 242.531256004517815, 516.109804719772455 ], [ 238.284489923441157, 519.253537114838991 ], [ 234.780807515562145, 519.81389077312474 ], [ 231.681050694700588, 522.150879060885927 ], [ 228.235098368356148, 522.69057656570692 ], [ 226.236067396638759, 524.237061431587904 ], [ 221.857321603420786, 525.539886572058776 ], [ 219.768684185513365, 525.212360181860163 ], [ 216.470432313093255, 526.65839696424473 ], [ 213.536640728130038, 526.135599939296185 ], [ 208.186579925934524, 528.206499027448217 ], [ 205.23448444274095, 527.688236355835102 ], [ 203.86012942594644, 528.513849844290689 ], [ 201.57586066719918, 527.010731748916442 ], [ 192.603476725749999, 525.431712592592476 ], [ 191.155645777118025, 526.256423534620467 ], [ 188.054668786908479, 525.728279278485275 ], [ 186.898735384742338, 524.430422570555493 ], [ 180.882886578895267, 523.361730826756002 ], [ 179.337952740971559, 524.172645402617263 ], [ 176.236975750762014, 523.644501146482185 ], [ 172.311916806422488, 520.844740640456507 ], [ 164.672782514775037, 519.562654634508704 ], [ 160.988654915323451, 516.852292227825274 ], [ 152.391226258616996, 514.350805065801978 ], [ 146.943565512687172, 510.325674982172245 ], [ 144.881406526565286, 509.924833592582559 ], [ 141.688081339952674, 506.41784141061828 ], [ 137.623789416640619, 504.534425312290352 ], [ 134.53476749803167, 500.01009121808363 ], [ 127.559244640668766, 498.747056192813261 ], [ 123.893562187459054, 496.0208561292132 ], [ 122.57962416365929, 493.915508035011726 ], [ 117.729877944225123, 490.898864185198079 ], [ 111.166308795836002, 483.77961970124403 ], [ 109.117859397585519, 482.298278671613559 ], [ 106.181284878047094, 481.776999139649149 ], [ 100.127357796302135, 476.707297749652696 ], [ 98.071092525866902, 476.309928955390376 ], [ 97.114422744761853, 475.09174197537692 ], [ 93.944244769464191, 474.526349910494901 ], [ 92.80931188554888, 476.012738292264487 ] ] ] } }
]
}
